#aV2020  5 19  0  0  0.00000000     288 DD+AD WGS84 FIT  NGA
## 2106 172800.00000000   300.00000000 58988 0.0000000000000
+   32     1  2  3  4  5  6  7  8  9 10 11 12 13 14 15 16 17
+         18 19 20 21 22 23 24 25 26 27 28 29 30 31 32  0  0
+          0  0  0  0  0  0  0  0  0  0  0  0  0  0  0  0  0
+          0  0  0  0  0  0  0  0  0  0  0  0  0  0  0  0  0
+          0  0  0  0  0  0  0  0  0  0  0  0  0  0  0  0  0
++         2  2  2  2  2  2  2  2  2  2  2  2  2  2  2  2  2
++         2  2  2  2  2  2  2  2  2  2  2  2  2  2  2  0  0
++         0  0  0  0  0  0  0  0  0  0  0  0  0  0  0  0  0
++         0  0  0  0  0  0  0  0  0  0  0  0  0  0  0  0  0
++         0  0  0  0  0  0  0  0  0  0  0  0  0  0  0  0  0
%c cc cc ccc ccc cccc cccc cccc cccc ccccc ccccc ccccc ccccc
%c cc cc ccc ccc cccc cccc cccc cccc ccccc ccccc ccccc ccccc
%f  0.0000000  0.000000000  0.00000000000  0.000000000000000
%f  0.0000000  0.000000000  0.00000000000  0.000000000000000
%i    0    0    0    0      0      0      0      0         0
%i    0    0    0    0      0      0      0      0         0
/*      NGA, ST. LOUIS,MO.                                  
/*   EPHEMERIS COMPUTED FROM 2 DAYS OF DATA                 
/*   EPOCHA v5 SMOOTHER                                     
/*   G1762 IERS2010 SATAF SATAPC                            
*  2020  5 19  8 10  0.00000000
P  1 -18657.819266  -9627.382142  16248.397364   -382.182777                    
V  1  -9752.884750 -18500.663418 -21535.688020     -0.058113                    
P  2  13316.806772  22815.438421   3649.287721   -458.277776                    
V  2  -4464.311868  -1523.133468  31246.987861     -0.061846                    
P  3 -17016.907761   2189.796856  20186.424025   -180.484407                    
V  3  11211.214192 -23240.882772  12038.254310     -0.123106                    
P  4 -26569.426027   -377.819070    556.351220    -91.272797                    
V  4    690.112612  -2826.410245  31702.320172     -0.049802                    
P  5   6288.203421  17632.117612 -18900.957786    -12.951087                    
V  5 -11982.743086  20640.613321  15574.376752     -0.007268                    
P  6   4489.052871  23017.697765  12475.723144   -274.145989                    
V  6  -9890.863595 -12384.777647  26565.850771     -0.067296                    
P  7 -12316.875816   8999.286760 -21419.518838   -284.495731                    
V  7 -14841.421505 -23715.324278  -1890.588602     -0.087297                    
P  8 -22935.030785  -6944.982959 -11715.587442    -34.502537                    
V  8  14679.143470  -2671.174564 -26869.797250     -0.013288                    
P  9 -23178.222697   8281.258685 -10055.432034   -220.113072                    
V  9 -12822.476219  -2090.011727  27951.229653     -0.072555                    
P 10  11146.711373 -23892.850543   1960.066936   -345.442417                    
V 10   3656.867947   -773.374755 -31879.124254     -0.115338                    
P 11 -23381.020691 -11818.854511   2701.824558   -273.172704                    
V 11  -1078.241851  -6041.172798 -30597.832303      0.107252                    
P 12  16546.523992   -399.467127  20497.468130    116.218448                    
V 12 -13351.164002  22976.845632  11250.487939     -0.044044                    
P 13  16291.992971  13031.266417 -16609.197471     11.177564                    
V 13 -20873.997167   -361.544632 -20816.762736      0.030650                    
P 14  -1265.200412 -15427.575431  21941.224892    -11.975663                    
V 14  26998.639215   1175.374281   2237.503340      0.026142                    
P 15  23858.519038   5178.662346 -11218.967391   -230.206624                    
V 15 -13189.200829   4768.993852 -26214.108810      0.025896                    
P 16  -5644.585255 -16300.090683 -20282.752623   -159.951427                    
V 16  14786.207815 -20625.162163  13029.529649     -0.045551                    
P 17  -9357.949176  13796.764105  21087.290172    267.088448                    
V 17 -25737.774014  -1275.539495 -10849.148716      0.060071                    
P 18  12338.678888  -8863.213671 -21794.790781    194.299158                    
V 18  14148.361038  23748.189757  -1667.057772      0.118685                    
P 19   -725.301481  14592.653742  21880.758475   -156.822299                    
V 19 -28380.760746  -1981.129680    356.148135      0.050926                    
P 20  15127.710442 -19282.499225 -10034.717106    527.669795                    
V 20  -1281.074549  13137.342084 -27605.643677     -0.000733                    
P 21   9054.899992 -12703.140225 -20796.279240      0.518812                    
V 21  16859.466173  22533.676653  -5931.990214      0.049220                    
P 22 -14047.368595  -7713.446446  21402.970620   -781.789669                    
V 22  10686.809786 -24564.593163  -1719.746506      0.013384                    
P 23 -22425.006122   9223.262696 -10942.620731   -112.995876                    
V 23 -14473.086336  -1870.562203  26747.363806      0.031028                    
P 24  20042.946432  10128.321332  14261.291926    -13.217776                    
V 24   8612.807192  16405.918907 -23068.777635     -0.004625                    
P 25  18125.526208 -11015.058747  15576.495384      5.282234                    
V 25  -7742.638165  18899.455104  22294.306715      0.031432                    
P 26   2171.511499 -23619.457470 -11756.570462    209.194373                    
V 26   9204.885293 -12175.284006  26457.761868      0.071537                    
P 27 -13972.892081 -12425.546440 -19135.971470   -297.642631                    
V 27  23793.809446  -1729.193773 -16043.182556     -0.101502                    
P 28 -11952.652925  23496.923602   4396.981642    716.163003                    
V 28  -4379.802027   2887.452832 -31389.890164     -0.032621                    
P 29  25199.540648  -4022.831819  -7451.424519   -107.789118                    
V 29   9298.086228   2223.934368  30398.812869     -0.088272                    
P 30  -4229.447576  18984.225717 -17952.888866   -223.285769                    
V 30 -13258.509908 -18937.076628 -17076.553718     -0.081882                    
P 31  -4864.344750 -23466.034453  10898.264536    -43.378631                    
V 31   9581.284900  10689.138842  27637.875893     -0.025686                    
P 32   7736.696740 -14878.935607  20646.445120    283.423583                    
V 32  26096.394514    -58.685423 -10005.130063      0.075517                    
EOF
